GLOBALSTAR M094         
1 39074U 13005C   25015.90590116 -.00000068  00000+0  20206-3 0  9993
2 39074  51.9963 285.7707 0000614  38.4611 321.6300 12.62267040553141
GLOBALSTAR M096         
1 39075U 13005D   25016.07749341 -.00000088  00000+0  87352-4 0  9997
2 39075  52.0096 333.6430 0000273  13.5016 346.5858 12.62266662552435
GLOBALSTAR M078         
1 39076U 13005E   25016.12966750  .00000032  00000+0  75850-3 0  9996
2 39076  51.9882  58.1957 0001065 180.7172 179.3693 12.62268750550921
GLOBALSTAR M095         
1 39077U 13005F   25015.44381595 -.00000083  00000+0  11623-3 0  9994
2 39077  51.9809  57.5598 0000580 193.8949 166.1902 12.62265355550489
GLOBALSTAR M087         
1 52888U 22064A   25015.73445186 -.00000110  00000+0 -11847-4 0  9994
2 52888  51.9758 198.2507 0029341 328.8831  31.0303 12.73897161125780
